SALSAT 6910 97
1 46495U 20068K   24056.84497051  .00008924  00000-0  53509-3 0  9997
2 46495  97.8034  13.5870 0013795 345.0609  15.0211 15.11128040187332
AQUA 7074 98
1 27424U 02022A   24058.14594973  .00001684  00000-0  36935-3 0  9994
2 27424  98.3186   7.2156 0002082  87.5428 329.8469 14.58914965160520